NORAD_CAT_ID,OBJECT_NAME,OBJECT_TYPE,EPOCH,MEAN_MOTION,ECCENTRICITY,INCLINATION,RA_OF_ASC_NODE,ARG_OF_PERICENTER,MEAN_ANOMALY,BSTAR,MEAN_MOTION_DOT,MEAN_MOTION_DDOT,TLE_LINE0,TLE_LINE1,TLE_LINE2,SEMIMAJOR_AXIS,PERIOD,APOGEE,PERIGEE,DECAYED
51961.0,STARLINK-3689,PAYLOAD,2022-11-20 04:07:45,15.08841682,0.0002698,53.2182,40.9101,31.4557,328.6596,3.0728e-05,2.01e-06,0.0,0 STARLINK-3689,1 51961U 22025F   22324.17205817  .00000201  00000-0  30728-4 0  9994,2 51961  53.2182  40.9101 0002698  31.4557 328.6596 15.08841682 40310,6917.875,95.437,541.607,537.874,0.0
51961.0,STARLINK-3689,PAYLOAD,2022-11-20 10:29:18,15.08843463,0.0002604,53.2184,39.7199,31.7512,328.3637,4.8223e-05,4.79e-06,0.0,0 STARLINK-3689,1 51961U 22025F   22324.43701620  .00000479  00000-0  48223-4 0  9992,2 51961  53.2184  39.7199 0002604  31.7512 328.3637 15.08843463 39248,6917.87,95.437,541.536,537.933,0.0
51961.0,STARLINK-3689,PAYLOAD,2022-11-20 21:36:59,15.08845007,0.0002665,53.2188,37.6385,31.513,328.6021,1.1248e-05,-1.09e-06,0.0,0 STARLINK-3689,1 51961U 22025F   22324.90069398 -.00000109  00000-0  11248-4 0  9991,2 51961  53.2188  37.6385 0002665  31.5130 328.6021 15.08845007 39311,6917.865,95.437,541.5740000000002,537.886,0.0
51961.0,STARLINK-3689,PAYLOAD,2022-11-21 05:33:55,15.08842031,0.0002461,53.2193,36.1508,33.1251,326.9895,-3.2491e-05,-8.06e-06,0.0,0 STARLINK-3689,1 51961U 22025F   22325.23189734 -.00000806  00000-0 -32491-4 0  9993,2 51961  53.2193  36.1508 0002461  33.1251 326.9895 15.08842031 40477,6917.874,95.437,541.442,538.0369999999998,0.0
51961.0,STARLINK-3689,PAYLOAD,2022-11-21 10:20:05,15.08837165,0.0002356,53.2196,35.2586,36.4513,323.6639,-8.1743e-05,-1.589e-05,0.0,0 STARLINK-3689,1 51961U 22025F   22325.43062131 -.00001589  00000-0 -81743-4 0  9999,2 51961  53.2196  35.2586 0002356  36.4513 323.6639 15.08837165 39397,6917.889,95.438,541.384,538.124,0.0
51961.0,STARLINK-3689,PAYLOAD,2022-11-22 10:10:52,15.08843897,0.0002618,53.2199,30.799,27.1603,332.9526,5.9715e-05,6.62e-06,0.0,0 STARLINK-3689,1 51961U 22025F   22326.42421526  .00000662  00000-0  59715-4 0  9999,2 51961  53.2199  30.7990 0002618  27.1603 332.9526 15.08843897 40655,6917.868,95.437,541.545,537.922,0.0
51961.0,STARLINK-3689,PAYLOAD,2022-11-22 11:46:15,15.08841643,0.0002476,53.22,30.5022,30.4128,329.7008,9.8998e-05,1.288e-05,0.0,0 STARLINK-3689,1 51961U 22025F   22326.49045560  .00001288  00000-0  98998-4 0  9997,2 51961  53.2200  30.5022 0002476  30.4128 329.7008 15.08841643 39556,6917.875,95.437,541.453,538.028,0.0
51961.0,STARLINK-3689,PAYLOAD,2022-11-22 13:21:38,15.08841445,0.00026,53.2194,30.2045,27.0973,333.0154,0.00010056,1.312e-05,0.0,0 STARLINK-3689,1 51961U 22025F   22326.55669605  .00001312  00000-0  10056-3 0  9992,2 51961  53.2194  30.2045 0002600  27.0973 333.0154 15.08841445 39560,6917.876,95.437,541.54,537.942,0.0
51961.0,STARLINK-3689,PAYLOAD,2022-11-23 05:15:30,15.08835979,0.0002725,53.2199,27.2296,26.8007,333.3126,0.00012562,1.711e-05,0.0,0 STARLINK-3689,1 51961U 22025F   22327.21909987  .00001711  00000-0  12562-3 0  9993,2 51961  53.2199  27.2296 0002725  26.8007 333.3126 15.08835979 40774,6917.893,95.438,541.643,537.873,0.0
51961.0,STARLINK-3689,PAYLOAD,2022-11-23 13:12:26,15.08827926,0.000292,53.2196,25.7432,23.9325,336.1803,4.4635e-05,4.22e-06,0.0,0 STARLINK-3689,1 51961U 22025F   22327.55030928  .00000422  00000-0  44635-4 0  9995,2 51961  53.2196  25.7432 0002920  23.9325 336.1803 15.08827926 40826,6917.917,95.438,541.802,537.762,0.0
51961.0,STARLINK-3689,PAYLOAD,2022-11-23 21:09:21,15.08836958,0.0002803,53.2196,24.2566,24.653,335.4595,4.0944e-05,3.63e-06,0.0,0 STARLINK-3689,1 51961U 22025F   22327.88150412  .00000363  00000-0  40944-4 0  9995,2 51961  53.2196  24.2566 0002803  24.6530 335.4595 15.08836958 40874,6917.89,95.438,541.694,537.816,0.0
51961.0,STARLINK-3689,PAYLOAD,2022-11-24 09:52:26,15.08848437,0.0002871,53.2192,21.8791,25.0549,335.0582,0.00010193,1.334e-05,0.0,0 STARLINK-3689,1 51961U 22025F   22328.41141584  .00001334  00000-0  10193-3 0  9996,2 51961  53.2192  21.8791 0002871  25.0549 335.0582 15.08848437 39845,6917.855,95.437,541.706,537.7330000000002,0.0
51961.0,STARLINK-3689,PAYLOAD,2022-11-24 11:27:49,15.0884574,0.000289,53.2197,21.5817,24.8961,335.217,8.8605e-05,1.122e-05,0.0,0 STARLINK-3689,1 51961U 22025F   22328.47765792  .00001122  00000-0  88605-4 0  9994,2 51961  53.2197  21.5817 0002890  24.8961 335.2170 15.08845740 40966,6917.863,95.437,541.727,537.729,0.0
51961.0,STARLINK-3689,PAYLOAD,2022-11-24 21:00:08,15.08838186,0.0002839,53.2193,19.7973,25.4339,334.6793,2.5715e-05,1.21e-06,0.0,0 STARLINK-3689,1 51961U 22025F   22328.87510387  .00000121  00000-0  25715-4 0  9997,2 51961  53.2193  19.7973 0002839  25.4339 334.6793 15.08838186 41021,6917.886,95.438,541.715,537.7869999999998,0.0
51961.0,STARLINK-3689,PAYLOAD,2022-11-25 11:18:36,15.08837685,0.0002941,53.2196,17.1216,24.5169,335.5963,0.00015684,2.208e-05,0.0,0 STARLINK-3689,1 51961U 22025F   22329.47126155  .00002208  00000-0  15684-3 0  9991,2 51961  53.2196  17.1216 0002941  24.5169 335.5963 15.08837685 40000,6917.887,95.438,541.7869999999998,537.7180000000002,0.0
51961.0,STARLINK-3689,PAYLOAD,2022-11-25 20:50:55,15.08842914,0.0002882,53.2196,15.3379,25.7518,334.3617,0.00017247,2.458e-05,0.0,0 STARLINK-3689,1 51961U 22025F   22329.86869795  .00002458  00000-0  17247-3 0  9992,2 51961  53.2196  15.3379 0002882  25.7518 334.3617 15.08842914 40065,6917.871,95.437,541.73,537.743,0.0
51961.0,STARLINK-3689,PAYLOAD,2022-11-26 03:12:27,15.08850794,0.0003131,53.2191,14.1488,27.4179,332.6978,7.5607e-05,9.15e-06,0.0,0 STARLINK-3689,1 51961U 22025F   22330.13365500  .00000915  00000-0  75607-4 0  9990,2 51961  53.2191  14.1488 0003131  27.4179 332.6978 15.08850794 41212,6917.847,95.437,541.878,537.5459999999998,0.0
51961.0,STARLINK-3689,PAYLOAD,2022-11-26 12:44:45,15.08863245,0.0003101,53.2187,12.364,23.5119,336.6015,-6.8871e-05,-1.385e-05,0.0,0 STARLINK-3689,1 51961U 22025F   22330.53108659 -.00001385  00000-0 -68871-4 0  9993,2 51961  53.2187  12.3640 0003101  23.5119 336.6015 15.08863245 40169,6917.809,95.436,541.82,537.529,0.0
51961.0,STARLINK-3689,PAYLOAD,2022-11-27 12:35:33,15.08837396,0.0003155,53.2192,7.9037,23.3243,336.7892,-3.0652e-05,-7.77e-06,0.0,0 STARLINK-3689,1 51961U 22025F   22331.52469772 -.00000777  00000-0 -30652-4 0  9999,2 51961  53.2192   7.9037 0003155  23.3243 336.7892 15.08837396 41422,6917.888000000001,95.438,541.936,537.571,0.0
51961.0,STARLINK-3689,PAYLOAD,2022-11-28 10:50:57,15.08835672,0.0003307,53.2192,3.7401,22.8422,337.2717,-3.3401e-05,-8.2e-06,0.0,0 STARLINK-3689,1 51961U 22025F   22332.45206018 -.00000820  00000-0 -33401-4 0  9998,2 51961  53.2192   3.7401 0003307  22.8422 337.2717 15.08835672 40452,6917.894,95.438,542.0459999999998,537.471,0.0
51961.0,STARLINK-3689,PAYLOAD,2022-11-28 18:47:53,15.08841911,0.0003165,53.2193,2.2533,24.2194,335.8946,-3.6303e-05,-8.67e-06,0.0,0 STARLINK-3689,1 51961U 22025F   22332.78325607 -.00000867  00000-0 -36303-4 0  9995,2 51961  53.2193   2.2533 0003165  24.2194 335.8946 15.08841911 41617,6917.875,95.437,541.929,537.55,0.0
51961.0,STARLINK-3689,PAYLOAD,2022-11-29 09:06:22,15.088290900000002,0.0003104,53.2187,359.5778,26.7564,333.3588,4.7195e-05,4.62e-06,0.0,0 STARLINK-3689,1 51961U 22025F   22333.37942274  .00000462  00000-0  47195-4 0  9996,2 51961  53.2187 359.5778 0003104  26.7564 333.3588 15.08829090 41709,6917.9140000000025,95.438,541.9259999999998,537.631,0.0
51961.0,STARLINK-3689,PAYLOAD,2022-11-29 10:41:45,15.08827555,0.0003121,53.2185,359.2803,26.5407,333.5744,3.443e-05,2.59e-06,0.0,0 STARLINK-3689,1 51961U 22025F   22333.44566487  .00000259  00000-0  34430-4 0  9994,2 51961  53.2185 359.2803 0003121  26.5407 333.5744 15.08827555 40604,6917.918000000002,95.438,541.943,537.624,0.0
51961.0,STARLINK-3689,PAYLOAD,2022-11-30 10:32:32,15.08833496,0.000314,53.2189,354.82,27.5309,332.5849,9.0566e-05,1.153e-05,0.0,0 STARLINK-3689,1 51961U 22025F   22334.43926517  .00001153  00000-0  90566-4 0  9994,2 51961  53.2189 354.8200 0003140  27.5309 332.5849 15.08833496 40755,6917.9,95.438,541.937,537.5930000000002,0.0
51961.0,STARLINK-3689,PAYLOAD,2022-11-30 18:29:27,15.08839958,0.0003194,53.2192,353.3332,28.056,332.0604,5.7126e-05,6.21e-06,0.0,0 STARLINK-3689,1 51961U 22025F   22334.77046296  .00000621  00000-0  57126-4 0  9992,2 51961  53.2192 353.3332 0003194  28.0560 332.0604 15.08839958 41915,6917.880999999999,95.438,541.955,537.536,0.0
51961.0,STARLINK-3689,PAYLOAD,2022-12-01 10:23:19,15.08836994,0.0003266,53.219,350.3576,27.0849,333.0313,4.3689e-05,4.07e-06,0.0,0 STARLINK-3689,1 51961U 22025F   22335.43286678  .00000407  00000-0  43689-4 0  9997,2 51961  53.2190 350.3576 0003266  27.0849 333.0313 15.08836994 40902,6917.89,95.438,542.014,537.495,0.0
51961.0,STARLINK-3689,PAYLOAD,2022-12-01 18:20:15,15.08835602,0.0003246,53.2191,348.8708,27.8754,332.2412,3.2769000000000004e-05,2.33e-06,0.0,0 STARLINK-3689,1 51961U 22025F   22335.76406867  .00000233  00000-0  32769-4 0  9991,2 51961  53.2191 348.8708 0003246  27.8754 332.2412 15.08835602 42068,6917.894,95.438,542.004,537.513,0.0
51961.0,STARLINK-3689,PAYLOAD,2022-12-02 08:38:42,15.08847382,0.0003278,53.2186,346.1961,26.9845,333.1317,9.4261e-05,1.212e-05,0.0,0 STARLINK-3689,1 51961U 22025F   22336.36021859  .00001212  00000-0  94261-4 0  9995,2 51961  53.2186 346.1961 0003278  26.9845 333.1317 15.08847382 42152,6917.858,95.437,541.99,537.455,0.0
51961.0,STARLINK-3689,PAYLOAD,2022-12-02 18:11:02,15.08840487,0.0003375,53.2185,344.4125,27.6529,332.4643,8.1729e-06,-1.59e-06,0.0,0 STARLINK-3689,1 51961U 22025F   22336.75766519 -.00000159  00000-0  81729-5 0  9993,2 51961  53.2185 344.4125 0003375  27.6529 332.4643 15.08840487 42219,6917.879,95.438,542.0790000000002,537.409,0.0
